FENGYUN 1C DEB          
1 31551U 99025BYS 17345.55730417  .00000181  00000-0  12214-3 0  9995
2 31551  98.8510 249.2594 0090202 294.8457 188.3197 14.10444109543372
